0 COSMOS 2251 DEB
1 35476U 93036ALW 13283.72835627  .00002085  00000-0  69313-3 0  6945
2 35476 073.9892 126.4298 0035023 090.6752 035.7496 14.37991165235559
0 COSMOS 2251 DEB
1 35476U 93036ALW 13286.03029549  .00002514  00000-0  83364-3 0  6950
2 35476 073.9898 122.1800 0035024 085.8357 072.4298 14.37997014235899
0 COSMOS 2251 DEB
1 35476U 93036ALW 13288.51024699  .00003520  00000-0  11632-2 0  6963
2 35476 073.9892 117.5993 0035028 080.5334 310.8173 14.38012542236241
0 COSMOS 2251 DEB
1 35476U 93036ALW 13290.68598775  .00003474  00000-0  11478-2 0  6972
2 35476 073.9894 113.5800 0035030 075.9284 054.4231 14.38024892236563
0 COSMOS 2251 DEB
1 35476U 93036ALW 13292.91720538  .00003416  00000-0  11288-2 0  6980
2 35476 073.9899 109.4585 0035022 071.1140 085.4202 14.38035572236886
0 COSMOS 2251 DEB
1 35476U 93036ALW 13295.90766341  .00004109  00000-0  13553-2 0  6992
2 35476 073.9904 103.9351 0035126 064.5643 087.2469 14.38053002237314
